ONEWEB-0504             
1 54122U 22138K   24301.38867102  .00000155  00000+0  35451-3 0  9996
2 54122  87.9162  63.8411 0001944 104.4441 255.6907 13.19723812 98859
ONEWEB-0505             
1 54123U 22138L   24301.38551654  .00000199  00000+0  46374-3 0  9993
2 54123  87.9160  63.8350 0002340 100.4227 259.7169 13.19723949 98833
ONEWEB-0506             
1 54124U 22138M   24300.90533917  .00000001  00000+0 -30600-4 0  9992
2 54124  87.9158  63.9272 0001883  97.3578 262.7769 13.19722640 98768
ONEWEB-0507             
1 54125U 22138N   24301.38077256  .00000250  00000+0  59258-3 0  9999
2 54125  87.9168  63.8653 0001894  94.2166 265.9184 13.19724446 98877
ONEWEB-0508             
1 54126U 22138P   24301.37761201  .00000179  00000+0  41591-3 0  9990
2 54126  87.9166  63.8554 0002068  91.7840 268.3529 13.19723382 98857
ONEWEB-0509             
1 54127U 22138Q   24301.42815113  .00000075  00000+0  15577-3 0  9999
2 54127  87.9160  63.8231 0001759  98.7352 261.3980 13.19727339 98833
ONEWEB-0510             
1 54128U 22138R   24300.95587235 -.00000147  00000+0 -39241-3 0  9994
2 54128  87.9295  33.4356 0001540  92.5612 267.5697 13.20770581101212
ONEWEB-0511             
1 54129U 22138S   24301.42499808  .00000060  00000+0  11712-3 0  9991
2 54129  87.9159  63.8274 0001710 109.0944 251.0374 13.19723316 98867
